{"type":"FeatureCollection","features":[{"type":"Feature","properties":{"name":"Balingayan"},"geometry":{"type":"Polygon","coordinates":[[[121.14895,13.33485],[121.1497,13.33491],[121.14997,13.33466],[121.15057,13.33483],[121.15053,13.33545],[121.15088,13.33551],[121.15156,13.33523],[121.15107,13.33434],[121.15153,13.33376],[121.15173,13.33283],[121.15153,13.332],[121.15206,13.332],[121.153,13.3326],[121.15307,13.33176],[121.15333,13.33156],[121.15339,13.33043],[121.15373,13.33023],[121.15373,13.32958],[121.15347,13.3291],[121.15344,13.31536],[121.15154,13.31506],[121.13995,13.31382],[121.13851,13.31301],[121.13787,13.31322],[121.13643,13.31338],[121.13589,13.31364],[121.13447,13.31397],[121.13466,13.31445],[121.13449,13.31567],[121.13453,13.31662],[121.13414,13.31726],[121.13365,13.31748],[121.13274,13.31728],[121.13226,13.31773],[121.13225,13.31867],[121.13191,13.31945],[121.13134,13.31986],[121.13025,13.32012],[121.13006,13.32042],[121.13034,13.32075],[121.13111,13.3209],[121.13118,13.32152],[121.13171,13.32202],[121.13245,13.32205],[121.1329,13.32236],[121.13288,13.32337],[121.13323,13.32424],[121.1334,13.32585],[121.13333,13.32626],[121.13268,13.32665],[121.1322,13.32735],[121.13154,13.32774],[121.13061,13.32757],[121.13005,13.32771],[121.12935,13.32691],[121.12899,13.32672],[121.12741,13.32696],[121.1266,13.32692],[121.12615,13.32678],[121.12595,13.32714],[121.12608,13.32792],[121.12648,13.32852],[121.12666,13.32939],[121.12709,13.33048],[121.13153,13.32943],[121.13205,13.32936],[121.13285,13.32989],[121.1331,13.32985],[121.1347,13.33829],[121.13626,13.34144],[121.1378,13.34384],[121.13913,13.34256],[121.14297,13.34107],[121.14297,13.33916],[121.1427,13.3372],[121.14292,13.33636],[121.14443,13.33564],[121.14557,13.33475],[121.14836,13.33434],[121.14895,13.33485]]]}},{"type":"Feature","properties":{"name":"Balite"},"geometry":{"type":"Polygon","coordinates":[[[121.16309,13.41591],[121.16222,13.41482],[121.16149,13.40807],[121.16206,13.40672],[121.16251,13.40606],[121.16309,13.40466],[121.16321,13.40387],[121.16316,13.4033],[121.16371,13.40287],[121.16465,13.40197],[121.16444,13.40134],[121.16408,13.40118],[121.16371,13.40066],[121.16241,13.39851],[121.16053,13.39743],[121.15899,13.39693],[121.15618,13.39733],[121.15504,13.39959],[121.153,13.40416],[121.15318,13.40501],[121.15332,13.4064],[121.15387,13.40725],[121.15451,13.40944],[121.15458,13.41048],[121.15564,13.41071],[121.15684,13.41127],[121.15661,13.41162],[121.15679,13.41225],[121.15668,13.41303],[121.15681,13.41343],[121.15639,13.41471],[121.15649,13.41506],[121.15705,13.41537],[121.15744,13.41585],[121.15911,13.41665],[121.15993,13.41717],[121.16039,13.41721],[121.16079,13.41674],[121.16309,13.41591]]]}},{"type":"Feature","properties":{"name":"Baruyan"},"geometry":{"type":"Polygon","coordinates":[[[121.14129,13.40538],[121.14143,13.40499],[121.14089,13.40469],[121.14102,13.40443],[121.14153,13.40468],[121.14232,13.40379],[121.14272,13.40269],[121.14395,13.40164],[121.14449,13.40145],[121.14542,13.40092],[121.14572,13.40008],[121.14618,13.39922],[121.14671,13.39793],[121.14696,13.39627],[121.14683,13.39565],[121.14642,13.39502],[121.14544,13.39399],[121.14439,13.3935],[121.14428,13.39219],[121.14477,13.38997],[121.14486,13.38875],[121.14469,13.388],[121.14428,13.38725],[121.14381,13.38668],[121.14316,13.38625],[121.14269,13.38578],[121.14256,13.38487],[121.14267,13.38394],[121.14082,13.38242],[121.13895,13.38146],[121.1387,13.38113],[121.13807,13.37888],[121.13677,13.37974],[121.13647,13.37977],[121.13639,13.37927],[121.136,13.37862],[121.13566,13.37832],[121.13558,13.37765],[121.13499,13.37716],[121.13454,13.37655],[121.13377,13.37591],[121.13369,13.37531],[121.13292,13.37429],[121.1323,13.37373],[121.13128,13.37304],[121.13108,13.37272],[121.13049,13.37229],[121.12862,13.37132],[121.11839,13.3697],[121.11784,13.3706],[121.11723,13.37187],[121.11707,13.37276],[121.11682,13.37344],[121.11672,13.37421],[121.11667,13.3762],[121.11695,13.37725],[121.11757,13.3781],[121.1178,13.37892],[121.11781,13.38117],[121.118,13.38271],[121.11801,13.38484],[121.11818,13.38476],[121.12241,13.38592],[121.126,13.39084],[121.12804,13.39419],[121.13218,13.3972],[121.13443,13.39825],[121.13544,13.39858],[121.13563,13.39897],[121.1363,13.39981],[121.13636,13.40032],[121.13598,13.40114],[121.13618,13.4026],[121.13604,13.40321],[121.13611,13.40396],[121.13635,13.40441],[121.13693,13.40484],[121.13799,13.40539],[121.13859,13.40585],[121.14016,13.4061],[121.14129,13.40538]]]}},{"type":"Feature","properties":{"name":"Batino"},"geometry":{"type":"Polygon","coordinates":[[[121.22968,13.37422],[121.22825,13.37185],[121.22794,13.3696],[121.22702,13.36711],[121.2259,13.36315],[121.22644,13.36199],[121.22733,13.35912],[121.22938,13.35522],[121.23075,13.35276],[121.22986,13.34975],[121.22843,13.34845],[121.22658,13.34777],[121.22467,13.34722],[121.21992,13.34539],[121.21776,13.34117],[121.21723,13.3378],[121.2156,13.32729],[121.2123,13.32882],[121.21289,13.32976],[121.21263,13.33237],[121.21213,13.33624],[121.2124,13.34316],[121.21229,13.34446],[121.21222,13.34632],[121.21232,13.3485],[121.21176,13.35047],[121.21129,13.35518],[121.21049,13.35686],[121.20994,13.35817],[121.20928,13.35883],[121.2091,13.35992],[121.20936,13.36098],[121.2106,13.36241],[121.21165,13.36611],[121.21243,13.36649],[121.21253,13.3669],[121.21342,13.36714],[121.21483,13.367],[121.21533,13.36756],[121.21553,13.36846],[121.21588,13.36871],[121.21689,13.36906],[121.21734,13.37007],[121.21734,13.37072],[121.21704,13.37133],[121.21694,13.37203],[121.21744,13.3724],[121.21779,13.37338],[121.21878,13.3732],[121.21868,13.37414],[121.21919,13.37452],[121.21931,13.37574],[121.21959,13.37603],[121.21951,13.37665],[121.21961,13.37709],[121.22041,13.37734],[121.22128,13.37793],[121.222,13.37799],[121.22187,13.37887],[121.2216,13.37918],[121.22112,13.37889],[121.22086,13.37916],[121.2212,13.38043],[121.22078,13.38067],[121.2207,13.38147],[121.22107,13.38202],[121.22187,13.38239],[121.22277,13.38213],[121.22323,13.38211],[121.22374,13.38296],[121.22416,13.3834],[121.22394,13.38401],[121.22433,13.38473],[121.2248,13.38442],[121.2255,13.38434],[121.22597,13.3847],[121.22667,13.38563],[121.22633,13.38018],[121.22968,13.37422]]]}},{"type":"Feature","properties":{"name":"Bayanan I"},"geometry":{"type":"Polygon","coordinates":[[[121.17542,13.37264],[121.1758,13.37216],[121.17598,13.37152],[121.17596,13.3707],[121.17638,13.36956],[121.17635,13.36914],[121.17664,13.36898],[121.17671,13.36854],[121.17713,13.36835],[121.17645,13.36757],[121.17673,13.36717],[121.17642,13.36677],[121.17642,13.3659],[121.17671,13.36558],[121.17636,13.36477],[121.17671,13.3644],[121.1763,13.3633],[121.17641,13.36296],[121.17602,13.36265],[121.17618,13.36228],[121.1762,13.36151],[121.1693,13.36081],[121.16784,13.36061],[121.16547,13.36085],[121.1626,13.36085],[121.1636,13.36596],[121.16388,13.36716],[121.16433,13.36795],[121.16445,13.36928],[121.16486,13.37189],[121.16552,13.37383],[121.16592,13.37408],[121.1742,13.37291],[121.17542,13.37264]]]}},{"type":"Feature","properties":{"name":"Bayanan II"},"geometry":{"type":"Polygon","coordinates":[[[121.17942,13.35278],[121.18068,13.35018],[121.18046,13.34949],[121.17556,13.34817],[121.17352,13.34707],[121.17342,13.34571],[121.17306,13.34515],[121.16897,13.34459],[121.1671,13.34912],[121.16676,13.34981],[121.16614,13.34951],[121.16454,13.34898],[121.1631,13.34815],[121.1563,13.34824],[121.15995,13.35176],[121.16017,13.35315],[121.16088,13.35651],[121.1626,13.36085],[121.16547,13.36085],[121.16784,13.36061],[121.1693,13.36081],[121.1762,13.36151],[121.17632,13.36106],[121.17611,13.36054],[121.17953,13.3583],[121.18168,13.35713],[121.17942,13.35278]]]}},{"type":"Feature","properties":{"name":"Biga"},"geometry":{"type":"Polygon","coordinates":[[[121.18386,13.33189],[121.18398,13.33087],[121.18356,13.33025],[121.18374,13.32924],[121.18354,13.32853],[121.18398,13.32766],[121.18377,13.32701],[121.18547,13.32155],[121.18722,13.31853],[121.18608,13.31763],[121.18331,13.31534],[121.17308,13.30787],[121.16552,13.31319],[121.15696,13.32965],[121.15961,13.3296],[121.16096,13.32868],[121.1625,13.32832],[121.16368,13.32839],[121.16426,13.33116],[121.16746,13.33144],[121.17014,13.33268],[121.17248,13.33286],[121.17336,13.33283],[121.17508,13.33266],[121.17798,13.33213],[121.18386,13.33189]]]}},{"type":"Feature","properties":{"name":"Bondoc"},"geometry":{"type":"Polygon","coordinates":[[[121.20686,13.39438],[121.20618,13.39384],[121.20604,13.39334],[121.20575,13.3915],[121.2049,13.39087],[121.20478,13.39],[121.20483,13.38906],[121.20396,13.3872],[121.20315,13.38623],[121.20256,13.38483],[121.20248,13.38396],[121.20328,13.38287],[121.20333,13.38154],[121.20248,13.38036],[121.2007,13.37937],[121.19954,13.37823],[121.19905,13.37705],[121.19847,13.37519],[121.19724,13.37432],[121.19593,13.37357],[121.19278,13.37557],[121.19234,13.37622],[121.19198,13.3765],[121.19112,13.37669],[121.18987,13.37717],[121.18828,13.37739],[121.18743,13.38203],[121.18906,13.38769],[121.18915,13.39126],[121.19116,13.39256],[121.19455,13.39382],[121.19619,13.39308],[121.19684,13.39231],[121.1978,13.39151],[121.19953,13.39135],[121.20073,13.39213],[121.20162,13.39525],[121.20686,13.39438]]]}},{"type":"Feature","properties":{"name":"Bucayao"},"geometry":{"type":"Polygon","coordinates":[[[121.19707,13.31461],[121.19745,13.31368],[121.19858,13.31155],[121.1986,13.31063],[121.1985,13.30975],[121.19803,13.30817],[121.19788,13.3065],[121.19696,13.30622],[121.19618,13.30558],[121.19602,13.30454],[121.19565,13.30366],[121.19527,13.30326],[121.19287,13.29688],[121.19009,13.29758],[121.18069,13.30093],[121.17333,13.30272],[121.17308,13.30787],[121.18331,13.31534],[121.18608,13.31763],[121.18722,13.31853],[121.18861,13.31957],[121.18901,13.31917],[121.18935,13.31909],[121.19109,13.31935],[121.19214,13.31915],[121.19291,13.31855],[121.19368,13.31726],[121.19424,13.31648],[121.19438,13.31613],[121.19496,13.31539],[121.19633,13.31461],[121.19707,13.31461]]]}},{"type":"Feature","properties":{"name":"Buhuan"},"geometry":{"type":"Polygon","coordinates":[[[121.23313,13.30858],[121.20674,13.30307],[121.20873,13.31443],[121.20933,13.31449],[121.21054,13.31413],[121.21192,13.31473],[121.21527,13.3153],[121.21624,13.31533],[121.21794,13.3152],[121.22005,13.31514],[121.22304,13.31568],[121.22443,13.31589],[121.22586,13.31644],[121.2266,13.31684],[121.22732,13.31739],[121.22911,13.31477],[121.23313,13.30858]]]}},{"type":"Feature","properties":{"name":"Bulusan"},"geometry":{"type":"Polygon","coordinates":[[[121.2004,13.40872],[121.20223,13.4068],[121.20368,13.40563],[121.20448,13.4045],[121.20448,13.40272],[121.20162,13.39525],[121.20073,13.39213],[121.19953,13.39135],[121.1978,13.39151],[121.19684,13.39231],[121.19619,13.39308],[121.19455,13.39382],[121.19116,13.39256],[121.18915,13.39126],[121.18696,13.39465],[121.18296,13.39684],[121.18403,13.39915],[121.18486,13.40135],[121.18628,13.4025],[121.18735,13.40224],[121.18965,13.4027],[121.18979,13.40287],[121.18982,13.40376],[121.18852,13.40425],[121.1876,13.40478],[121.18707,13.40565],[121.1873,13.40779],[121.18755,13.40897],[121.18718,13.41036],[121.18832,13.41039],[121.18973,13.41113],[121.19057,13.41167],[121.19125,13.41194],[121.19242,13.41273],[121.19407,13.41468],[121.19748,13.41234],[121.19861,13.41063],[121.2004,13.40872]]]}},{"type":"Feature","properties":{"name":"Calero"},"geometry":{"type":"Polygon","coordinates":[[[121.18511,13.41631],[121.18376,13.41569],[121.18256,13.41523],[121.18221,13.415],[121.18143,13.41485],[121.18127,13.41412],[121.18119,13.41377],[121.18065,13.41393],[121.18086,13.41491],[121.17972,13.41509],[121.17984,13.41594],[121.18065,13.41605],[121.18178,13.41649],[121.18246,13.41692],[121.18458,13.41778],[121.18504,13.41782],[121.18543,13.41809],[121.1856,13.41785],[121.18511,13.41631]]]}},{"type":"Feature","properties":{"name":"Camansihan"},"geometry":{"type":"Polygon","coordinates":[[[121.24237,13.34593],[121.24172,13.34476],[121.2402,13.34301],[121.23953,13.3418],[121.23889,13.33912],[121.23731,13.33296],[121.23188,13.32853],[121.23012,13.32792],[121.2286,13.32721],[121.2277,13.3262],[121.22736,13.32522],[121.22709,13.32392],[121.22723,13.32318],[121.2278,13.32242],[121.22829,13.32129],[121.22858,13.32004],[121.22846,13.31914],[121.22797,13.31809],[121.22732,13.31739],[121.2266,13.31684],[121.22586,13.31644],[121.22521,13.31678],[121.21995,13.31796],[121.21554,13.32295],[121.2156,13.32729],[121.21723,13.3378],[121.21776,13.34117],[121.21992,13.34539],[121.22467,13.34722],[121.22658,13.34777],[121.22843,13.34845],[121.22986,13.34975],[121.23075,13.35276],[121.23166,13.35214],[121.23341,13.35167],[121.23383,13.35146],[121.23544,13.35009],[121.23521,13.34897],[121.2348,13.34824],[121.234,13.34706],[121.23359,13.34623],[121.23376,13.3452],[121.23428,13.34447],[121.23598,13.34458],[121.23727,13.34539],[121.23842,13.34627],[121.23911,13.34717],[121.24039,13.34782],[121.24179,13.34759],[121.24237,13.34675],[121.24237,13.34593]]]}},{"type":"Feature","properties":{"name":"Camilmil"},"geometry":{"type":"Polygon","coordinates":[[[121.17829,13.40841],[121.17814,13.40819],[121.17875,13.40759],[121.17984,13.40717],[121.1796,13.40703],[121.17835,13.40551],[121.17854,13.40505],[121.17913,13.40457],[121.17926,13.40426],[121.17895,13.40343],[121.17896,13.40278],[121.17852,13.40245],[121.17825,13.40297],[121.17758,13.40265],[121.17732,13.40298],[121.17741,13.40366],[121.17723,13.40399],[121.17658,13.40391],[121.17615,13.40404],[121.17597,13.40375],[121.1759,13.40309],[121.17544,13.40298],[121.17578,13.40244],[121.17564,13.40197],[121.17456,13.40235],[121.17252,13.4033],[121.17009,13.40408],[121.16934,13.40463],[121.17026,13.40668],[121.17409,13.40714],[121.17455,13.40745],[121.17651,13.40906],[121.17829,13.40841]]]}},{"type":"Feature","properties":{"name":"Canubing I"},"geometry":{"type":"Polygon","coordinates":[[[121.14408,13.36262],[121.14835,13.35865],[121.14962,13.35658],[121.15127,13.35468],[121.15194,13.35332],[121.15188,13.35262],[121.14386,13.35096],[121.14316,13.35121],[121.13727,13.34868],[121.13459,13.35107],[121.13439,13.3518],[121.13345,13.35397],[121.13342,13.35431],[121.13282,13.35492],[121.13214,13.35537],[121.13181,13.3552],[121.13116,13.3557],[121.13057,13.35565],[121.13014,13.35585],[121.12982,13.35538],[121.12952,13.35535],[121.12911,13.35589],[121.12846,13.35593],[121.12761,13.35654],[121.12705,13.35664],[121.12652,13.35714],[121.12624,13.35681],[121.1252,13.35741],[121.12476,13.35794],[121.12487,13.35822],[121.1243,13.3592],[121.12334,13.3615],[121.12281,13.36213],[121.12195,13.36273],[121.12089,13.36373],[121.1203,13.36444],[121.11994,13.36516],[121.11977,13.36692],[121.11955,13.36756],[121.11919,13.36814],[121.11839,13.3697],[121.12862,13.37132],[121.13049,13.37229],[121.13032,13.37135],[121.1305,13.36971],[121.13048,13.36856],[121.13066,13.36767],[121.1311,13.36692],[121.13115,13.36628],[121.13136,13.36557],[121.13227,13.36521],[121.1326,13.3649],[121.13363,13.36518],[121.13454,13.36486],[121.13576,13.36398],[121.13767,13.36351],[121.13883,13.36341],[121.13934,13.36351],[121.14018,13.36326],[121.14094,13.36445],[121.14171,13.36431],[121.14221,13.36387],[121.14239,13.36342],[121.14297,13.36325],[121.14408,13.36262]]]}},{"type":"Feature","properties":{"name":"Canubing II"},"geometry":{"type":"Polygon","coordinates":[[[121.12709,13.33048],[121.12666,13.32939],[121.12648,13.32852],[121.12608,13.32792],[121.12595,13.32714],[121.12615,13.32678],[121.1266,13.32692],[121.12741,13.32696],[121.12899,13.32672],[121.12935,13.32691],[121.13005,13.32771],[121.13061,13.32757],[121.13154,13.32774],[121.1322,13.32735],[121.13268,13.32665],[121.13333,13.32626],[121.1334,13.32585],[121.13323,13.32424],[121.13288,13.32337],[121.1329,13.32236],[121.13245,13.32205],[121.13171,13.32202],[121.13118,13.32152],[121.13111,13.3209],[121.13034,13.32075],[121.13006,13.32042],[121.13025,13.32012],[121.13134,13.31986],[121.13191,13.31945],[121.13225,13.31867],[121.13226,13.31773],[121.13274,13.31728],[121.13365,13.31748],[121.13414,13.31726],[121.13453,13.31662],[121.13449,13.31567],[121.13466,13.31445],[121.13447,13.31397],[121.13345,13.31414],[121.13257,13.31401],[121.13176,13.3143],[121.1316,13.31477],[121.13079,13.3142],[121.13083,13.31375],[121.13151,13.313],[121.13172,13.31229],[121.13146,13.31161],[121.1318,13.31104],[121.13189,13.30969],[121.13165,13.30917],[121.13096,13.3082],[121.13035,13.30716],[121.13018,13.30509],[121.13044,13.30367],[121.13119,13.30196],[121.13202,13.30118],[121.12234,13.29981],[121.11122,13.29993],[121.10571,13.30146],[121.10508,13.30222],[121.1046,13.30241],[121.10375,13.30246],[121.10318,13.30226],[121.10211,13.30151],[121.10124,13.30158],[121.1006,13.30206],[121.10037,13.30249],[121.10041,13.30382],[121.10084,13.30567],[121.10083,13.30643],[121.10043,13.30752],[121.10049,13.30849],[121.10112,13.30939],[121.10222,13.31009],[121.10248,13.31113],[121.10194,13.31196],[121.10171,13.31213],[121.1014,13.31279],[121.10156,13.31411],[121.10171,13.3143],[121.10274,13.31444],[121.10337,13.3151],[121.10415,13.31641],[121.10458,13.31679],[121.10508,13.31686],[121.10594,13.31674],[121.10626,13.31704],[121.10684,13.31694],[121.10667,13.31651],[121.10549,13.31543],[121.1049,13.31526],[121.1042,13.31383],[121.10382,13.31332],[121.10372,13.31255],[121.10439,13.31194],[121.1053,13.31155],[121.10709,13.31107],[121.10795,13.31101],[121.10831,13.31114],[121.1089,13.31168],[121.10821,13.31333],[121.10756,13.31386],[121.10745,13.31483],[121.10772,13.31523],[121.10918,13.31568],[121.11007,13.31575],[121.11075,13.31629],[121.11112,13.3172],[121.11094,13.31814],[121.11041,13.31883],[121.11,13.31918],[121.10919,13.32011],[121.10854,13.32051],[121.10812,13.32113],[121.10803,13.32153],[121.10834,13.32229],[121.10883,13.3229],[121.1098,13.32311],[121.11113,13.32264],[121.11194,13.32289],[121.11267,13.32369],[121.11281,13.324],[121.11268,13.32474],[121.11156,13.32568],[121.11001,13.32627],[121.10978,13.32674],[121.10981,13.32722],[121.11041,13.32766],[121.11095,13.32833],[121.11201,13.32854],[121.11242,13.32871],[121.11318,13.32973],[121.11421,13.32988],[121.11485,13.3301],[121.11572,13.33005],[121.11549,13.331],[121.11494,13.33283],[121.11484,13.33341],[121.12709,13.33048]]]}},{"type":"Feature","properties":{"name":"Comunal"},"geometry":{"type":"Polygon","coordinates":[[[121.17308,13.30787],[121.17333,13.30272],[121.16814,13.30007],[121.15572,13.29807],[121.14902,13.29818],[121.14939,13.29885],[121.152,13.30556],[121.15139,13.30639],[121.15107,13.30787],[121.15154,13.31506],[121.15344,13.31536],[121.15347,13.3291],[121.15696,13.32965],[121.16552,13.31319],[121.17308,13.30787]]]}},{"type":"Feature","properties":{"name":"Guinobatan"},"geometry":{"type":"Polygon","coordinates":[[[121.18915,13.39126],[121.18906,13.38769],[121.18743,13.38203],[121.18828,13.37739],[121.1863,13.37694],[121.18512,13.37675],[121.18341,13.37638],[121.18277,13.37616],[121.18188,13.37617],[121.18101,13.3764],[121.17997,13.37654],[121.1788,13.37713],[121.17414,13.37782],[121.17383,13.37778],[121.17351,13.37829],[121.17391,13.3793],[121.17376,13.37984],[121.17423,13.38012],[121.17419,13.38089],[121.17404,13.38136],[121.17421,13.38163],[121.17378,13.38225],[121.17411,13.38264],[121.17396,13.38304],[121.17327,13.38357],[121.17248,13.38351],[121.17187,13.38427],[121.17236,13.38954],[121.17468,13.39069],[121.17576,13.39105],[121.1762,13.39084],[121.17923,13.39098],[121.17981,13.39114],[121.1803,13.39153],[121.18143,13.39312],[121.18249,13.39413],[121.18296,13.39684],[121.18696,13.39465],[121.18915,13.39126]]]}},{"type":"Feature","properties":{"name":"Gulod"},"geometry":{"type":"Polygon","coordinates":[[[121.21165,13.36611],[121.2106,13.36241],[121.20936,13.36098],[121.2091,13.35992],[121.20928,13.35883],[121.20994,13.35817],[121.21049,13.35686],[121.21129,13.35518],[121.21176,13.35047],[121.21232,13.3485],[121.21222,13.34632],[121.21229,13.34446],[121.2124,13.34316],[121.21213,13.33624],[121.21263,13.33237],[121.21289,13.32976],[121.2123,13.32882],[121.20938,13.32976],[121.20876,13.33087],[121.20808,13.33187],[121.20621,13.33392],[121.20555,13.33499],[121.20246,13.34032],[121.20281,13.3406],[121.20282,13.34132],[121.20267,13.34174],[121.20291,13.34205],[121.20283,13.34316],[121.20311,13.34335],[121.20348,13.34487],[121.20332,13.34554],[121.20337,13.34592],[121.20335,13.34663],[121.20384,13.34654],[121.20398,13.34716],[121.20428,13.34698],[121.20475,13.34734],[121.20468,13.34814],[121.20483,13.34914],[121.20512,13.34959],[121.20504,13.35012],[121.2058,13.35104],[121.20553,13.35206],[121.20494,13.35268],[121.20516,13.35306],[121.20493,13.35373],[121.20531,13.35417],[121.2052,13.3547],[121.20535,13.35514],[121.20501,13.35525],[121.20494,13.35563],[121.20435,13.35626],[121.20446,13.35656],[121.20373,13.35675],[121.20345,13.35702],[121.20344,13.35761],[121.2038,13.35802],[121.20426,13.35906],[121.20475,13.35914],[121.20537,13.35946],[121.20558,13.36009],[121.20533,13.36066],[121.20542,13.36123],[121.20517,13.36162],[121.20445,13.3622],[121.20484,13.36275],[121.20484,13.36359],[121.20594,13.36373],[121.20619,13.3629],[121.20671,13.36302],[121.20702,13.36328],[121.20672,13.36382],[121.20673,13.36421],[121.20747,13.3644],[121.20778,13.36502],[121.2087,13.365],[121.20875,13.36469],[121.20927,13.36478],[121.20968,13.36517],[121.20965,13.36554],[121.20997,13.36612],[121.21086,13.36642],[121.2113,13.36672],[121.21165,13.36611]]]}},{"type":"Feature","properties":{"name":"Gutad"},"geometry":{"type":"Polygon","coordinates":[[[121.25391,13.35835],[121.25291,13.35591],[121.25239,13.35555],[121.25223,13.35501],[121.25259,13.35488],[121.25361,13.35405],[121.25337,13.3538],[121.25268,13.35395],[121.25257,13.35367],[121.25323,13.35272],[121.25311,13.35247],[121.25249,13.3523],[121.25193,13.35173],[121.25174,13.35131],[121.25284,13.35045],[121.25265,13.35003],[121.25211,13.35022],[121.25147,13.35015],[121.25135,13.34973],[121.25154,13.34944],[121.2515,13.34881],[121.25078,13.34859],[121.24946,13.34791],[121.24811,13.34667],[121.2467,13.34649],[121.24607,13.34615],[121.24482,13.34528],[121.24311,13.34514],[121.24237,13.34593],[121.24237,13.34675],[121.24179,13.34759],[121.24039,13.34782],[121.23911,13.34717],[121.23842,13.34627],[121.23727,13.34539],[121.23598,13.34458],[121.23428,13.34447],[121.23376,13.3452],[121.23359,13.34623],[121.234,13.34706],[121.2348,13.34824],[121.23521,13.34897],[121.23544,13.35009],[121.23383,13.35146],[121.23341,13.35167],[121.23166,13.35214],[121.23075,13.35276],[121.22938,13.35522],[121.22733,13.35912],[121.22644,13.36199],[121.2259,13.36315],[121.22702,13.36711],[121.22794,13.3696],[121.22825,13.37185],[121.22968,13.37422],[121.23209,13.37497],[121.23169,13.37691],[121.23161,13.37796],[121.23608,13.38273],[121.2365,13.38364],[121.23981,13.37929],[121.24308,13.37639],[121.2459,13.37416],[121.24724,13.37134],[121.2483,13.36918],[121.24887,13.36844],[121.24921,13.36835],[121.24968,13.36775],[121.25027,13.36746],[121.25051,13.367],[121.25057,13.36641],[121.24954,13.36507],[121.25085,13.36362],[121.25028,13.36171],[121.25215,13.35879],[121.25391,13.35835]]]}},{"type":"Feature","properties":{"name":"Ibaba East"},"geometry":{"type":"Polygon","coordinates":[[[121.17984,13.41594],[121.17972,13.41509],[121.18086,13.41491],[121.18065,13.41393],[121.18012,13.4141],[121.17992,13.4133],[121.17897,13.41405],[121.17801,13.41431],[121.17717,13.41415],[121.17703,13.41528],[121.17936,13.41589],[121.17984,13.41594]]]}},{"type":"Feature","properties":{"name":"Ibaba West"},"geometry":{"type":"Polygon","coordinates":[[[121.17717,13.41415],[121.17689,13.4141],[121.17656,13.41357],[121.17612,13.41284],[121.17575,13.41264],[121.17526,13.41259],[121.17423,13.413],[121.17406,13.41369],[121.1745,13.41412],[121.17438,13.41455],[121.17482,13.41453],[121.17492,13.41489],[121.1757,13.41513],[121.17594,13.41497],[121.17703,13.41528],[121.17717,13.41415]]]}},{"type":"Feature","properties":{"name":"Ilaya"},"geometry":{"type":"Polygon","coordinates":[[[121.19327,13.41524],[121.19407,13.41468],[121.19242,13.41273],[121.19125,13.41194],[121.19057,13.41167],[121.18973,13.41113],[121.18832,13.41039],[121.18718,13.41036],[121.18666,13.4097],[121.18485,13.4097],[121.18487,13.41029],[121.1835,13.41132],[121.18175,13.41192],[121.18186,13.4125],[121.18116,13.41278],[121.18021,13.4133],[121.17992,13.4133],[121.18012,13.4141],[121.18065,13.41393],[121.18119,13.41377],[121.18127,13.41412],[121.18329,13.41343],[121.18518,13.41319],[121.18527,13.41348],[121.1858,13.41334],[121.18593,13.41374],[121.18642,13.4142],[121.1856,13.41482],[121.18544,13.41591],[121.18618,13.41559],[121.1875,13.41521],[121.18962,13.41495],[121.19027,13.41542],[121.19327,13.41524]]]}},{"type":"Feature","properties":{"name":"Lalud"},"geometry":{"type":"Polygon","coordinates":[[[121.17564,13.40197],[121.1755,13.40142],[121.17698,13.40112],[121.17779,13.40058],[121.17804,13.40012],[121.17694,13.3997],[121.17638,13.39941],[121.17629,13.39884],[121.17674,13.39804],[121.17637,13.39746],[121.17614,13.39666],[121.17672,13.39601],[121.17663,13.39587],[121.17582,13.396],[121.17566,13.39555],[121.17514,13.39549],[121.1714,13.39641],[121.17028,13.39672],[121.16926,13.3971],[121.16241,13.39851],[121.16371,13.40066],[121.16408,13.40118],[121.16444,13.40134],[121.16566,13.40193],[121.1671,13.40242],[121.16805,13.40288],[121.16934,13.40463],[121.17009,13.40408],[121.17252,13.4033],[121.17456,13.40235],[121.17564,13.40197]]]}},{"type":"Feature","properties":{"name":"Lazareto"},"geometry":{"type":"MultiPolygon","coordinates":[[[[121.20536,13.42328],[121.19674,13.4236],[121.1974,13.42438],[121.19669,13.42459],[121.19713,13.42591],[121.19689,13.42671],[121.19708,13.4277],[121.19668,13.42789],[121.19687,13.42887],[121.19638,13.42904],[121.19653,13.43102],[121.19623,13.43112],[121.19626,13.43229],[121.19647,13.43303],[121.19626,13.43343],[121.19668,13.43469],[121.1971,13.4352],[121.19735,13.43596],[121.19832,13.43707],[121.19973,13.43767],[121.20011,13.43753],[121.20114,13.4368],[121.20198,13.43569],[121.20233,13.43436],[121.20237,13.4332],[121.20117,13.43215],[121.20111,13.43156],[121.20142,13.43035],[121.2019,13.42938],[121.20198,13.42897],[121.20286,13.42725],[121.20416,13.42508],[121.20536,13.42328]]],[[[121.22132,13.44728],[121.2215,13.44696],[121.22195,13.44702],[121.22228,13.44645],[121.22212,13.44534],[121.2219,13.44488],[121.22061,13.44346],[121.22015,13.44248],[121.21944,13.44121],[121.21882,13.43995],[121.21809,13.4391],[121.21712,13.43863],[121.21694,13.43913],[121.21696,13.43977],[121.2176,13.44134],[121.21802,13.44283],[121.21873,13.44402],[121.21926,13.44555],[121.22,13.44626],[121.22134,13.44702],[121.22132,13.44728]]],[[[121.16404,13.46707],[121.16365,13.46569],[121.16339,13.46537],[121.16291,13.46528],[121.16301,13.46493],[121.16288,13.46402],[121.16236,13.46403],[121.16149,13.46349],[121.16141,13.46325],[121.16047,13.46317],[121.16402,13.46737],[121.16404,13.46707]]]]}},{"type":"Feature","properties":{"name":"Libis"},"geometry":{"type":"Polygon","coordinates":[[[121.18544,13.41591],[121.1856,13.41482],[121.18642,13.4142],[121.18593,13.41374],[121.1858,13.41334],[121.18527,13.41348],[121.18518,13.41319],[121.18329,13.41343],[121.18127,13.41412],[121.18143,13.41485],[121.18221,13.415],[121.18256,13.41523],[121.18376,13.41569],[121.18511,13.41631],[121.18544,13.41591]]]}},{"type":"Feature","properties":{"name":"Lumang Bayan"},"geometry":{"type":"Polygon","coordinates":[[[121.18628,13.4025],[121.18486,13.40135],[121.18403,13.39915],[121.18296,13.39684],[121.18249,13.39413],[121.18143,13.39312],[121.1803,13.39153],[121.17981,13.39114],[121.17923,13.39098],[121.1762,13.39084],[121.17576,13.39105],[121.17569,13.39158],[121.17625,13.39168],[121.17605,13.39208],[121.1761,13.39279],[121.17575,13.3929],[121.17544,13.39339],[121.17585,13.39378],[121.17592,13.3942],[121.17562,13.39442],[121.1758,13.39491],[121.17566,13.39555],[121.17582,13.396],[121.17663,13.39587],[121.17672,13.39601],[121.17614,13.39666],[121.17637,13.39746],[121.17674,13.39804],[121.17629,13.39884],[121.17638,13.39941],[121.17694,13.3997],[121.17804,13.40012],[121.17779,13.40058],[121.17698,13.40112],[121.1755,13.40142],[121.17564,13.40197],[121.17578,13.40244],[121.17544,13.40298],[121.1759,13.40309],[121.17597,13.40375],[121.17615,13.40404],[121.17658,13.40391],[121.17723,13.40399],[121.17741,13.40366],[121.17732,13.40298],[121.17758,13.40265],[121.17825,13.40297],[121.17852,13.40245],[121.17896,13.40278],[121.17895,13.40343],[121.17926,13.40426],[121.17913,13.40457],[121.17854,13.40505],[121.17835,13.40551],[121.1796,13.40703],[121.17984,13.40717],[121.18076,13.40712],[121.18154,13.40765],[121.18198,13.4074],[121.18233,13.40743],[121.18225,13.40611],[121.18233,13.40535],[121.18289,13.40535],[121.18301,13.40482],[121.18289,13.40413],[121.18371,13.40364],[121.18401,13.404],[121.1851,13.40318],[121.18628,13.4025]]]}},{"type":"Feature","properties":{"name":"Mahal na Pangalan"},"geometry":{"type":"MultiPolygon","coordinates":[[[[121.14513,13.40967],[121.14511,13.40971],[121.14511,13.40972],[121.14509,13.40974],[121.1451,13.40975],[121.14511,13.40975],[121.14513,13.40967]]],[[[121.15458,13.41048],[121.15451,13.40944],[121.15387,13.40725],[121.15332,13.4064],[121.15318,13.40501],[121.153,13.40416],[121.15504,13.39959],[121.15618,13.39733],[121.15328,13.39658],[121.14946,13.39676],[121.14614,13.40783],[121.14515,13.40963],[121.14587,13.41022],[121.14664,13.41046],[121.14756,13.41047],[121.14829,13.41029],[121.14906,13.40988],[121.1499,13.40998],[121.15056,13.40993],[121.15118,13.41013],[121.15211,13.41018],[121.15245,13.41041],[121.15231,13.41074],[121.1532,13.41106],[121.15328,13.41075],[121.15404,13.41071],[121.15458,13.41048]]]]}},{"type":"Feature","properties":{"name":"Maidlang"},"geometry":{"type":"MultiPolygon","coordinates":[[[[121.23835,13.38932],[121.23827,13.38935],[121.23588,13.38512],[121.2365,13.38364],[121.23608,13.38273],[121.23161,13.37796],[121.23169,13.37691],[121.23209,13.37497],[121.22968,13.37422],[121.22633,13.38018],[121.22667,13.38563],[121.2296,13.38849],[121.22894,13.39138],[121.22928,13.39208],[121.23011,13.39343],[121.23063,13.39379],[121.23041,13.39478],[121.23068,13.3953],[121.23166,13.39591],[121.23211,13.39602],[121.23346,13.39567],[121.23517,13.39495],[121.23547,13.395],[121.2362,13.39392],[121.23648,13.39333],[121.23667,13.39237],[121.23649,13.39197],[121.2369,13.3917],[121.23799,13.38976],[121.23835,13.38932]]],[[[121.22746,13.3996],[121.2274,13.39833],[121.22783,13.39759],[121.22762,13.39742],[121.22761,13.39657],[121.22741,13.39602],[121.2275,13.39566],[121.22719,13.39482],[121.22689,13.39461],[121.22612,13.3944],[121.22563,13.39457],[121.22467,13.39444],[121.22467,13.39578],[121.22513,13.39586],[121.22578,13.39669],[121.22572,13.39767],[121.22632,13.39834],[121.22612,13.39879],[121.22638,13.39929],[121.22719,13.39962],[121.22746,13.3996]]]]}},{"type":"Feature","properties":{"name":"Malad"},"geometry":{"type":"Polygon","coordinates":[[[121.1563,13.34824],[121.1631,13.34815],[121.16454,13.34898],[121.16614,13.34951],[121.16676,13.34981],[121.1671,13.34912],[121.16897,13.34459],[121.16692,13.34349],[121.16623,13.34149],[121.16638,13.34001],[121.16626,13.33832],[121.17014,13.33268],[121.16746,13.33144],[121.16426,13.33116],[121.16368,13.32839],[121.1625,13.32832],[121.16096,13.32868],[121.15961,13.3296],[121.15696,13.32965],[121.15347,13.3291],[121.15373,13.32958],[121.15373,13.33023],[121.15339,13.33043],[121.15333,13.33156],[121.15307,13.33176],[121.153,13.3326],[121.15206,13.332],[121.15153,13.332],[121.15173,13.33283],[121.15153,13.33376],[121.15107,13.33434],[121.15156,13.33523],[121.15088,13.33551],[121.15053,13.33545],[121.15057,13.33483],[121.14997,13.33466],[121.1497,13.33491],[121.14895,13.33485],[121.14834,13.3353],[121.14817,13.33595],[121.14871,13.33644],[121.14828,13.337],[121.14829,13.3377],[121.14864,13.33808],[121.14907,13.33762],[121.14956,13.33739],[121.14986,13.33764],[121.14983,13.3383],[121.14925,13.33852],[121.14902,13.33906],[121.14935,13.34007],[121.14963,13.34028],[121.15029,13.34024],[121.15105,13.3396],[121.15132,13.33977],[121.15116,13.34027],[121.1514,13.34058],[121.15086,13.34079],[121.1507,13.34104],[121.15086,13.34204],[121.15028,13.3426],[121.15026,13.34344],[121.15061,13.34388],[121.15079,13.34497],[121.15035,13.34553],[121.15019,13.34602],[121.15021,13.34688],[121.14993,13.34739],[121.15188,13.35098],[121.15374,13.34985],[121.1563,13.34824]]]}},{"type":"Feature","properties":{"name":"Malamig"},"geometry":{"type":"Polygon","coordinates":[[[121.15188,13.35098],[121.14993,13.34739],[121.15021,13.34688],[121.15019,13.34602],[121.15035,13.34553],[121.15079,13.34497],[121.15061,13.34388],[121.15026,13.34344],[121.15028,13.3426],[121.15086,13.34204],[121.1507,13.34104],[121.15086,13.34079],[121.1514,13.34058],[121.15116,13.34027],[121.15132,13.33977],[121.15105,13.3396],[121.15029,13.34024],[121.14963,13.34028],[121.14935,13.34007],[121.14902,13.33906],[121.14925,13.33852],[121.14983,13.3383],[121.14986,13.33764],[121.14956,13.33739],[121.14907,13.33762],[121.14864,13.33808],[121.14829,13.3377],[121.14828,13.337],[121.14871,13.33644],[121.14817,13.33595],[121.14834,13.3353],[121.14895,13.33485],[121.14836,13.33434],[121.14557,13.33475],[121.14443,13.33564],[121.14292,13.33636],[121.1427,13.3372],[121.14297,13.33916],[121.14297,13.34107],[121.13913,13.34256],[121.1378,13.34384],[121.13802,13.34655],[121.13727,13.34868],[121.14316,13.35121],[121.14386,13.35096],[121.15188,13.35262],[121.15195,13.35202],[121.15188,13.35098]]]}},{"type":"Feature","properties":{"name":"Managpi"},"geometry":{"type":"Polygon","coordinates":[[[121.20337,13.34592],[121.20332,13.34554],[121.20348,13.34487],[121.20311,13.34335],[121.20283,13.34316],[121.20291,13.34205],[121.20267,13.34174],[121.20282,13.34132],[121.20281,13.3406],[121.20246,13.34032],[121.20555,13.33499],[121.20621,13.33392],[121.20808,13.33187],[121.20876,13.33087],[121.20938,13.32976],[121.2123,13.32882],[121.2156,13.32729],[121.21554,13.32295],[121.21995,13.31796],[121.22521,13.31678],[121.22586,13.31644],[121.22443,13.31589],[121.22304,13.31568],[121.22005,13.31514],[121.21794,13.3152],[121.21624,13.31533],[121.21527,13.3153],[121.21192,13.31473],[121.21054,13.31413],[121.20933,13.31449],[121.20873,13.31443],[121.20812,13.31522],[121.20758,13.31703],[121.20595,13.31878],[121.20528,13.31878],[121.20438,13.31908],[121.20347,13.31896],[121.20202,13.31817],[121.20125,13.31712],[121.19816,13.31558],[121.19707,13.31461],[121.19633,13.31461],[121.19496,13.31539],[121.19438,13.31613],[121.19424,13.31648],[121.19368,13.31726],[121.19291,13.31855],[121.19214,13.31915],[121.19109,13.31935],[121.18935,13.31909],[121.18901,13.31917],[121.18861,13.31957],[121.18722,13.31853],[121.18547,13.32155],[121.18377,13.32701],[121.18398,13.32766],[121.18354,13.32853],[121.18374,13.32924],[121.18356,13.33025],[121.18398,13.33087],[121.18386,13.33189],[121.18429,13.33229],[121.18443,13.333],[121.18565,13.33398],[121.18567,13.33468],[121.18606,13.33465],[121.18626,13.33521],[121.18683,13.33537],[121.18722,13.33595],[121.1877,13.33601],[121.188,13.33633],[121.18832,13.33593],[121.19003,13.33697],[121.19002,13.33733],[121.1906,13.33759],[121.191,13.33808],[121.19148,13.33809],[121.19258,13.33909],[121.19274,13.33946],[121.19332,13.33951],[121.19465,13.34085],[121.19606,13.3419],[121.19742,13.34234],[121.19793,13.34228],[121.19821,13.34307],[121.19887,13.34339],[121.19969,13.3442],[121.20006,13.34432],[121.20008,13.3448],[121.20031,13.34507],[121.20102,13.34532],[121.20159,13.34537],[121.20187,13.34517],[121.20249,13.34529],[121.20285,13.34561],[121.20288,13.34598],[121.20337,13.34592]]]}},{"type":"Feature","properties":{"name":"Masipit"},"geometry":{"type":"Polygon","coordinates":[[[121.15899,13.39693],[121.16008,13.39157],[121.16134,13.39123],[121.16319,13.3899],[121.16501,13.38936],[121.16534,13.38948],[121.16586,13.38925],[121.16614,13.38936],[121.16738,13.38888],[121.16923,13.38551],[121.16988,13.38537],[121.17122,13.38455],[121.17187,13.38427],[121.17248,13.38351],[121.1708,13.38219],[121.16917,13.37971],[121.16842,13.37926],[121.16355,13.37932],[121.16091,13.37962],[121.15772,13.38224],[121.15698,13.38267],[121.15551,13.38289],[121.15395,13.38355],[121.14381,13.38668],[121.14428,13.38725],[121.14469,13.388],[121.14486,13.38875],[121.14477,13.38997],[121.14428,13.39219],[121.14439,13.3935],[121.14544,13.39399],[121.14642,13.39502],[121.14683,13.39565],[121.14946,13.39676],[121.15328,13.39658],[121.15618,13.39733],[121.15899,13.39693]]]}},{"type":"Feature","properties":{"name":"Nag-iba I"},"geometry":{"type":"Polygon","coordinates":[[[121.25834,13.32699],[121.2541,13.3344],[121.25758,13.33408],[121.25976,13.33489],[121.26377,13.33494],[121.27009,13.34196],[121.27113,13.34334],[121.27225,13.34562],[121.27219,13.34708],[121.27113,13.34982],[121.27133,13.35209],[121.27365,13.35387],[121.27392,13.35564],[121.27369,13.35762],[121.2757,13.36113],[121.27713,13.36027],[121.27755,13.36047],[121.27877,13.35974],[121.27943,13.35962],[121.28036,13.35904],[121.28215,13.35824],[121.28374,13.35734],[121.28532,13.35634],[121.2855,13.35615],[121.28727,13.35496],[121.28883,13.35376],[121.28921,13.35356],[121.27769,13.34197],[121.27771,13.34152],[121.27829,13.34095],[121.27846,13.34006],[121.27799,13.33951],[121.27688,13.33916],[121.27632,13.33867],[121.27625,13.33777],[121.27595,13.33707],[121.27521,13.33695],[121.27514,13.33665],[121.27449,13.33633],[121.27423,13.33561],[121.2744,13.33512],[121.27525,13.33498],[121.27577,13.33454],[121.27582,13.33375],[121.27567,13.33333],[121.27511,13.33259],[121.27055,13.3301],[121.26975,13.32986],[121.26884,13.32972],[121.26708,13.32972],[121.26459,13.32986],[121.26304,13.32913],[121.25834,13.32699]]]}},{"type":"Feature","properties":{"name":"Nag-iba II"},"geometry":{"type":"Polygon","coordinates":[[[121.2757,13.36113],[121.27369,13.35762],[121.27392,13.35564],[121.27365,13.35387],[121.27133,13.35209],[121.27113,13.34982],[121.27219,13.34708],[121.27225,13.34562],[121.27113,13.34334],[121.27009,13.34196],[121.26377,13.33494],[121.25976,13.33489],[121.25758,13.33408],[121.2541,13.3344],[121.25256,13.33603],[121.24859,13.33634],[121.24437,13.33551],[121.24205,13.33737],[121.23889,13.33912],[121.23953,13.3418],[121.2402,13.34301],[121.24172,13.34476],[121.24237,13.34593],[121.24311,13.34514],[121.24482,13.34528],[121.24607,13.34615],[121.2467,13.34649],[121.24811,13.34667],[121.24946,13.34791],[121.25078,13.34859],[121.2515,13.34881],[121.25154,13.34944],[121.25135,13.34973],[121.25147,13.35015],[121.25211,13.35022],[121.25265,13.35003],[121.25284,13.35045],[121.25174,13.35131],[121.25193,13.35173],[121.25249,13.3523],[121.25311,13.35247],[121.25323,13.35272],[121.25257,13.35367],[121.25268,13.35395],[121.25337,13.3538],[121.25361,13.35405],[121.25259,13.35488],[121.25223,13.35501],[121.25239,13.35555],[121.25291,13.35591],[121.25391,13.35835],[121.25572,13.35844],[121.2566,13.35881],[121.26254,13.36449],[121.26339,13.36453],[121.26391,13.36493],[121.26374,13.36533],[121.26315,13.36585],[121.26301,13.36627],[121.26361,13.36658],[121.26415,13.36667],[121.26534,13.36654],[121.266,13.3663],[121.26721,13.36565],[121.26789,13.36518],[121.26879,13.36477],[121.26993,13.36399],[121.2708,13.36357],[121.27196,13.36314],[121.27291,13.36269],[121.27337,13.36259],[121.27438,13.36181],[121.27514,13.36152],[121.2757,13.36113]]]}},{"type":"Feature","properties":{"name":"Navotas"},"geometry":{"type":"Polygon","coordinates":[[[121.23835,13.38932],[121.24011,13.38685],[121.24024,13.38654],[121.24154,13.38467],[121.24325,13.38257],[121.2441,13.38145],[121.24613,13.37908],[121.24747,13.37777],[121.24801,13.37711],[121.24862,13.37663],[121.24904,13.37611],[121.24974,13.37553],[121.25015,13.37496],[121.25054,13.37475],[121.25136,13.37363],[121.2514,13.37305],[121.25126,13.37265],[121.25178,13.37259],[121.25208,13.37276],[121.25292,13.37268],[121.25346,13.37225],[121.25507,13.37132],[121.25604,13.37057],[121.25722,13.36996],[121.25876,13.36898],[121.25924,13.36877],[121.26099,13.36758],[121.26134,13.36719],[121.262,13.36683],[121.26256,13.36612],[121.26301,13.36627],[121.26315,13.36585],[121.26374,13.36533],[121.26391,13.36493],[121.26339,13.36453],[121.26254,13.36449],[121.2566,13.35881],[121.25572,13.35844],[121.25391,13.35835],[121.25215,13.35879],[121.25028,13.36171],[121.25085,13.36362],[121.24954,13.36507],[121.25057,13.36641],[121.25051,13.367],[121.25027,13.36746],[121.24968,13.36775],[121.24921,13.36835],[121.24887,13.36844],[121.2483,13.36918],[121.24724,13.37134],[121.2459,13.37416],[121.24308,13.37639],[121.23981,13.37929],[121.2365,13.38364],[121.23588,13.38512],[121.23827,13.38935],[121.23835,13.38932]]]}},{"type":"Feature","properties":{"name":"Pachoca"},"geometry":{"type":"Polygon","coordinates":[[[121.17218,13.41442],[121.17196,13.41225],[121.17191,13.41128],[121.17197,13.41017],[121.17184,13.40982],[121.17124,13.40973],[121.17048,13.40983],[121.17033,13.40962],[121.17011,13.40807],[121.17026,13.40668],[121.16934,13.40463],[121.16805,13.40288],[121.1671,13.40242],[121.16566,13.40193],[121.16444,13.40134],[121.16465,13.40197],[121.16371,13.40287],[121.16316,13.4033],[121.16321,13.40387],[121.16309,13.40466],[121.16251,13.40606],[121.16206,13.40672],[121.16149,13.40807],[121.16222,13.41482],[121.16309,13.41591],[121.16643,13.4149],[121.16738,13.41476],[121.16881,13.41478],[121.16928,13.41485],[121.17005,13.41465],[121.17085,13.41458],[121.17147,13.41435],[121.17218,13.41442]]]}},{"type":"Feature","properties":{"name":"Palhi"},"geometry":{"type":"Polygon","coordinates":[[[121.22433,13.38473],[121.22394,13.38401],[121.22416,13.3834],[121.22374,13.38296],[121.22323,13.38211],[121.22277,13.38213],[121.22187,13.38239],[121.22107,13.38202],[121.2207,13.38147],[121.22078,13.38067],[121.2212,13.38043],[121.22086,13.37916],[121.22112,13.37889],[121.2216,13.37918],[121.22187,13.37887],[121.222,13.37799],[121.22128,13.37793],[121.22041,13.37734],[121.21961,13.37709],[121.21951,13.37665],[121.21959,13.37603],[121.21931,13.37574],[121.21919,13.37452],[121.21868,13.37414],[121.21878,13.3732],[121.21779,13.37338],[121.21744,13.3724],[121.21694,13.37203],[121.21704,13.37133],[121.21734,13.37072],[121.21734,13.37007],[121.21689,13.36906],[121.21588,13.36871],[121.21553,13.36846],[121.21533,13.36756],[121.21483,13.367],[121.21342,13.36714],[121.21253,13.3669],[121.21243,13.36649],[121.21165,13.36611],[121.2113,13.36672],[121.21086,13.36642],[121.20997,13.36612],[121.20965,13.36554],[121.20968,13.36517],[121.20927,13.36478],[121.20875,13.36469],[121.2087,13.365],[121.20778,13.36502],[121.20747,13.3644],[121.20673,13.36421],[121.20672,13.36382],[121.20702,13.36328],[121.20671,13.36302],[121.20619,13.3629],[121.20594,13.36373],[121.20484,13.36359],[121.20484,13.36275],[121.20445,13.3622],[121.20126,13.36118],[121.19662,13.36353],[121.1947,13.36777],[121.1937,13.37046],[121.1941,13.37085],[121.19424,13.37185],[121.19535,13.37306],[121.19593,13.37357],[121.19724,13.37432],[121.19847,13.37519],[121.19905,13.37705],[121.19954,13.37823],[121.2007,13.37937],[121.20248,13.38036],[121.20333,13.38154],[121.20328,13.38287],[121.20248,13.38396],[121.20256,13.38483],[121.20315,13.38623],[121.20396,13.3872],[121.20483,13.38906],[121.20478,13.39],[121.2049,13.39087],[121.20575,13.3915],[121.20604,13.39334],[121.20618,13.39384],[121.20686,13.39438],[121.20822,13.39601],[121.20924,13.39743],[121.21329,13.3974],[121.21363,13.3971],[121.21619,13.39762],[121.21675,13.3955],[121.21745,13.39381],[121.21879,13.39208],[121.22097,13.38871],[121.22236,13.3878],[121.22301,13.38745],[121.22377,13.38542],[121.22433,13.38473]]]}},{"type":"Feature","properties":{"name":"Panggalaan"},"geometry":{"type":"Polygon","coordinates":[[[121.20873,13.31443],[121.20674,13.30307],[121.20445,13.30138],[121.20263,13.30007],[121.20157,13.29925],[121.1987,13.29627],[121.19287,13.29688],[121.19527,13.30326],[121.19565,13.30366],[121.19602,13.30454],[121.19618,13.30558],[121.19696,13.30622],[121.19788,13.3065],[121.19803,13.30817],[121.1985,13.30975],[121.1986,13.31063],[121.19858,13.31155],[121.19745,13.31368],[121.19707,13.31461],[121.19816,13.31558],[121.20125,13.31712],[121.20202,13.31817],[121.20347,13.31896],[121.20438,13.31908],[121.20528,13.31878],[121.20595,13.31878],[121.20758,13.31703],[121.20812,13.31522],[121.20873,13.31443]]]}},{"type":"Feature","properties":{"name":"Parang"},"geometry":{"type":"Polygon","coordinates":[[[121.22813,13.403],[121.22799,13.4033],[121.22441,13.40073],[121.22192,13.40149],[121.22176,13.40109],[121.22357,13.3993],[121.22342,13.39857],[121.22368,13.39671],[121.22416,13.39605],[121.22467,13.39578],[121.22467,13.39444],[121.22563,13.39457],[121.22612,13.3944],[121.22689,13.39461],[121.227,13.39405],[121.22697,13.39249],[121.22675,13.39207],[121.22599,13.38955],[121.22594,13.38887],[121.22819,13.38887],[121.22827,13.3897],[121.22847,13.39007],[121.22894,13.39138],[121.2296,13.38849],[121.22667,13.38563],[121.22597,13.3847],[121.2255,13.38434],[121.2248,13.38442],[121.22433,13.38473],[121.22377,13.38542],[121.22301,13.38745],[121.22236,13.3878],[121.22097,13.38871],[121.21879,13.39208],[121.21745,13.39381],[121.21675,13.3955],[121.21619,13.39762],[121.21363,13.3971],[121.21329,13.3974],[121.20924,13.39743],[121.20822,13.39601],[121.20686,13.39438],[121.20162,13.39525],[121.20448,13.40272],[121.20448,13.4045],[121.20368,13.40563],[121.20223,13.4068],[121.2004,13.40872],[121.21253,13.41502],[121.21291,13.41531],[121.21383,13.41471],[121.2146,13.41406],[121.21492,13.41394],[121.21651,13.41263],[121.21763,13.41181],[121.21851,13.41129],[121.21938,13.41059],[121.22026,13.40999],[121.22109,13.40891],[121.22113,13.40853],[121.2222,13.40818],[121.22262,13.40816],[121.22364,13.40782],[121.2237,13.40717],[121.22421,13.40691],[121.22487,13.40675],[121.22558,13.40692],[121.22553,13.40738],[121.22587,13.4075],[121.22614,13.407],[121.2262,13.40622],[121.22642,13.40538],[121.22678,13.40555],[121.22696,13.40491],[121.22789,13.40394],[121.22812,13.40356],[121.22813,13.403]]]}},{"type":"Feature","properties":{"name":"Patas"},"geometry":{"type":"Polygon","coordinates":[[[121.12709,13.33048],[121.11484,13.33341],[121.11465,13.33481],[121.11443,13.33532],[121.11429,13.33645],[121.11369,13.33646],[121.11282,13.33612],[121.11256,13.33619],[121.11178,13.33715],[121.11144,13.33836],[121.11128,13.33974],[121.11161,13.34013],[121.1122,13.34038],[121.1134,13.33983],[121.11383,13.33995],[121.11444,13.3404],[121.11501,13.34015],[121.11509,13.33944],[121.11466,13.33873],[121.11462,13.3383],[121.11501,13.33781],[121.11521,13.33838],[121.11544,13.33957],[121.11565,13.33996],[121.11631,13.34049],[121.11636,13.34094],[121.11564,13.34168],[121.11575,13.34227],[121.11515,13.34303],[121.11473,13.34288],[121.1145,13.34315],[121.1142,13.34401],[121.11416,13.34448],[121.11442,13.3449],[121.11449,13.34545],[121.11398,13.34592],[121.11272,13.34639],[121.11253,13.34682],[121.11277,13.34751],[121.11284,13.34885],[121.11246,13.34925],[121.1115,13.35],[121.11125,13.35048],[121.11129,13.35107],[121.11167,13.35154],[121.11255,13.35165],[121.11394,13.35107],[121.11452,13.35049],[121.11483,13.34973],[121.11527,13.34965],[121.11562,13.35],[121.11563,13.35118],[121.11575,13.35181],[121.11628,13.35235],[121.11727,13.35281],[121.11839,13.35309],[121.11926,13.35315],[121.11994,13.35352],[121.12005,13.35295],[121.11989,13.35179],[121.12,13.35092],[121.11991,13.35039],[121.12009,13.3501],[121.12051,13.35001],[121.12125,13.34935],[121.1221,13.34905],[121.12273,13.34855],[121.12316,13.34799],[121.12342,13.34724],[121.12348,13.34667],[121.12385,13.34607],[121.12443,13.34581],[121.12479,13.34485],[121.12573,13.34358],[121.12608,13.34276],[121.12612,13.34233],[121.12664,13.34106],[121.12758,13.33824],[121.12776,13.33742],[121.12752,13.33584],[121.12799,13.33516],[121.12788,13.33478],[121.12803,13.33423],[121.12792,13.33363],[121.12757,13.33291],[121.12744,13.33231],[121.12684,13.33188],[121.12686,13.33132],[121.12717,13.33087],[121.12709,13.33048]]]}},{"type":"Feature","properties":{"name":"Personas"},"geometry":{"type":"Polygon","coordinates":[[[121.14902,13.29818],[121.1366,13.29874],[121.13382,13.29892],[121.13202,13.30118],[121.13119,13.30196],[121.13044,13.30367],[121.13018,13.30509],[121.13035,13.30716],[121.13096,13.3082],[121.13165,13.30917],[121.13189,13.30969],[121.1318,13.31104],[121.13146,13.31161],[121.13172,13.31229],[121.13151,13.313],[121.13083,13.31375],[121.13079,13.3142],[121.1316,13.31477],[121.13176,13.3143],[121.13257,13.31401],[121.13345,13.31414],[121.13447,13.31397],[121.13589,13.31364],[121.13643,13.31338],[121.13787,13.31322],[121.13851,13.31301],[121.13995,13.31382],[121.15154,13.31506],[121.15107,13.30787],[121.15139,13.30639],[121.152,13.30556],[121.14939,13.29885],[121.14902,13.29818]]]}},{"type":"Feature","properties":{"name":"Putingtubig"},"geometry":{"type":"Polygon","coordinates":[[[121.20337,13.34592],[121.20288,13.34598],[121.20285,13.34561],[121.20249,13.34529],[121.20187,13.34517],[121.20159,13.34537],[121.20102,13.34532],[121.20031,13.34507],[121.20008,13.3448],[121.20006,13.34432],[121.19969,13.3442],[121.19887,13.34339],[121.19821,13.34307],[121.19793,13.34228],[121.19742,13.34234],[121.19606,13.3419],[121.19465,13.34085],[121.19332,13.33951],[121.19274,13.33946],[121.19258,13.33909],[121.19148,13.33809],[121.191,13.33808],[121.1906,13.33759],[121.19002,13.33733],[121.19003,13.33697],[121.18832,13.33593],[121.188,13.33633],[121.1877,13.33601],[121.18722,13.33595],[121.18683,13.33537],[121.18626,13.33521],[121.18606,13.33465],[121.18567,13.33468],[121.18565,13.33398],[121.18443,13.333],[121.18429,13.33229],[121.18386,13.33189],[121.17798,13.33213],[121.17508,13.33266],[121.17336,13.33283],[121.17248,13.33286],[121.17014,13.33268],[121.16626,13.33832],[121.16638,13.34001],[121.16623,13.34149],[121.16692,13.34349],[121.16897,13.34459],[121.17306,13.34515],[121.17342,13.34571],[121.17352,13.34707],[121.17556,13.34817],[121.18046,13.34949],[121.18068,13.35018],[121.17942,13.35278],[121.19044,13.35467],[121.199,13.35643],[121.20126,13.36118],[121.20445,13.3622],[121.20517,13.36162],[121.20542,13.36123],[121.20533,13.36066],[121.20558,13.36009],[121.20537,13.35946],[121.20475,13.35914],[121.20426,13.35906],[121.2038,13.35802],[121.20344,13.35761],[121.20345,13.35702],[121.20373,13.35675],[121.20446,13.35656],[121.20435,13.35626],[121.20494,13.35563],[121.20501,13.35525],[121.20535,13.35514],[121.2052,13.3547],[121.20531,13.35417],[121.20493,13.35373],[121.20516,13.35306],[121.20494,13.35268],[121.20553,13.35206],[121.2058,13.35104],[121.20504,13.35012],[121.20512,13.34959],[121.20483,13.34914],[121.20468,13.34814],[121.20475,13.34734],[121.20428,13.34698],[121.20398,13.34716],[121.20384,13.34654],[121.20335,13.34663],[121.20337,13.34592]]]}},{"type":"Feature","properties":{"name":"Sabang"},"geometry":{"type":"Polygon","coordinates":[[[121.14515,13.40963],[121.14614,13.40783],[121.14946,13.39676],[121.14683,13.39565],[121.14696,13.39627],[121.14671,13.39793],[121.14618,13.39922],[121.14572,13.40008],[121.14542,13.40092],[121.14449,13.40145],[121.14395,13.40164],[121.14272,13.40269],[121.14232,13.40379],[121.14153,13.40468],[121.14102,13.40443],[121.14089,13.40469],[121.14143,13.40499],[121.14129,13.40538],[121.14154,13.4062],[121.14231,13.40676],[121.14221,13.40706],[121.14261,13.40727],[121.14284,13.4082],[121.14391,13.40917],[121.14471,13.40924],[121.14511,13.40971],[121.14513,13.40967],[121.14515,13.40963]]]}},{"type":"Feature","properties":{"name":"Salong"},"geometry":{"type":"Polygon","coordinates":[[[121.19504,13.42055],[121.19495,13.42008],[121.19362,13.41765],[121.19327,13.41524],[121.19027,13.41542],[121.18962,13.41495],[121.1875,13.41521],[121.18618,13.41559],[121.18544,13.41591],[121.18511,13.41631],[121.1856,13.41785],[121.18543,13.41809],[121.18706,13.41917],[121.18741,13.41954],[121.1881,13.41989],[121.18866,13.42038],[121.18912,13.42057],[121.18961,13.42101],[121.19151,13.42226],[121.19224,13.42283],[121.19355,13.42352],[121.19392,13.4232],[121.19467,13.42207],[121.19503,13.42099],[121.19504,13.42055]]]}},{"type":"Feature","properties":{"name":"San Antonio"},"geometry":{"type":"Polygon","coordinates":[[[121.19674,13.4236],[121.19504,13.42055],[121.19503,13.42099],[121.19467,13.42207],[121.19392,13.4232],[121.19355,13.42352],[121.19398,13.4241],[121.19392,13.42441],[121.19431,13.4247],[121.19464,13.42541],[121.19462,13.42592],[121.19381,13.42618],[121.19419,13.42668],[121.19409,13.42733],[121.19472,13.429],[121.19443,13.42948],[121.19477,13.43037],[121.19567,13.4301],[121.19596,13.43041],[121.19623,13.43112],[121.19653,13.43102],[121.19638,13.42904],[121.19687,13.42887],[121.19668,13.42789],[121.19708,13.4277],[121.19689,13.42671],[121.19713,13.42591],[121.19669,13.42459],[121.1974,13.42438],[121.19674,13.4236]]]}},{"type":"Feature","properties":{"name":"San Vicente Central"},"geometry":{"type":"Polygon","coordinates":[[[121.17967,13.41239],[121.17928,13.41092],[121.17852,13.41122],[121.17748,13.41132],[121.17746,13.41318],[121.17918,13.41261],[121.17967,13.41239]]]}},{"type":"Feature","properties":{"name":"San Vicente East"},"geometry":{"type":"Polygon","coordinates":[[[121.18175,13.41192],[121.18104,13.411],[121.18108,13.41003],[121.18171,13.40936],[121.18208,13.40835],[121.18154,13.40765],[121.18076,13.40712],[121.17984,13.40717],[121.17875,13.40759],[121.17814,13.40819],[121.17829,13.40841],[121.17907,13.41011],[121.17928,13.41092],[121.17967,13.41239],[121.18024,13.41219],[121.18175,13.41192]]]}},{"type":"Feature","properties":{"name":"San Vicente North"},"geometry":{"type":"Polygon","coordinates":[[[121.17992,13.4133],[121.18021,13.4133],[121.18116,13.41278],[121.18186,13.4125],[121.18175,13.41192],[121.18024,13.41219],[121.17967,13.41239],[121.17918,13.41261],[121.17746,13.41318],[121.17656,13.41357],[121.17689,13.4141],[121.17717,13.41415],[121.17801,13.41431],[121.17897,13.41405],[121.17992,13.4133]]]}},{"type":"Feature","properties":{"name":"San Vicente South"},"geometry":{"type":"Polygon","coordinates":[[[121.17748,13.41132],[121.17852,13.41122],[121.17928,13.41092],[121.17907,13.41011],[121.17829,13.40841],[121.17651,13.40906],[121.17696,13.4094],[121.17621,13.41087],[121.17623,13.41096],[121.1769,13.4114],[121.17748,13.41132]]]}},{"type":"Feature","properties":{"name":"San Vicente West"},"geometry":{"type":"Polygon","coordinates":[[[121.17746,13.41318],[121.17748,13.41132],[121.1769,13.4114],[121.17623,13.41096],[121.17549,13.41165],[121.17589,13.41229],[121.17575,13.41264],[121.17612,13.41284],[121.17656,13.41357],[121.17746,13.41318]]]}},{"type":"Feature","properties":{"name":"Santa Cruz"},"geometry":{"type":"Polygon","coordinates":[[[121.2541,13.3344],[121.25834,13.32699],[121.25327,13.32379],[121.25126,13.32139],[121.24204,13.31551],[121.24126,13.31309],[121.24052,13.31179],[121.23313,13.30858],[121.22911,13.31477],[121.22732,13.31739],[121.22797,13.31809],[121.22846,13.31914],[121.22858,13.32004],[121.22829,13.32129],[121.2278,13.32242],[121.22723,13.32318],[121.22709,13.32392],[121.22736,13.32522],[121.2277,13.3262],[121.2286,13.32721],[121.23012,13.32792],[121.23188,13.32853],[121.23731,13.33296],[121.23889,13.33912],[121.24205,13.33737],[121.24437,13.33551],[121.24859,13.33634],[121.25256,13.33603],[121.2541,13.3344]]]}},{"type":"Feature","properties":{"name":"Santa Isabel"},"geometry":{"type":"Polygon","coordinates":[[[121.1788,13.37713],[121.17853,13.3755],[121.17794,13.37559],[121.17784,13.37528],[121.17651,13.37357],[121.1762,13.37268],[121.17542,13.37264],[121.1742,13.37291],[121.16592,13.37408],[121.16552,13.37383],[121.16486,13.37189],[121.16445,13.36928],[121.16433,13.36795],[121.16388,13.36716],[121.1636,13.36596],[121.1626,13.36085],[121.16088,13.35651],[121.16017,13.35315],[121.15995,13.35176],[121.1563,13.34824],[121.15374,13.34985],[121.15188,13.35098],[121.15195,13.35202],[121.15188,13.35262],[121.15194,13.35332],[121.15127,13.35468],[121.14962,13.35658],[121.14835,13.35865],[121.1517,13.36474],[121.1542,13.37219],[121.15475,13.37461],[121.15395,13.38355],[121.15551,13.38289],[121.15698,13.38267],[121.15772,13.38224],[121.16091,13.37962],[121.16355,13.37932],[121.16842,13.37926],[121.16917,13.37971],[121.1708,13.38219],[121.17248,13.38351],[121.17327,13.38357],[121.17396,13.38304],[121.17411,13.38264],[121.17378,13.38225],[121.17421,13.38163],[121.17404,13.38136],[121.17419,13.38089],[121.17423,13.38012],[121.17376,13.37984],[121.17391,13.3793],[121.17351,13.37829],[121.17383,13.37778],[121.17414,13.37782],[121.1788,13.37713]]]}},{"type":"Feature","properties":{"name":"Santa Maria Village"},"geometry":{"type":"Polygon","coordinates":[[[121.17623,13.41096],[121.17621,13.41087],[121.17696,13.4094],[121.17651,13.40906],[121.17455,13.40745],[121.17409,13.40714],[121.17026,13.40668],[121.17011,13.40807],[121.17033,13.40962],[121.17048,13.40983],[121.17124,13.40973],[121.17184,13.40982],[121.17236,13.40987],[121.17346,13.40971],[121.17416,13.41105],[121.1749,13.41109],[121.17549,13.41165],[121.17623,13.41096]]]}},{"type":"Feature","properties":{"name":"Santa Rita"},"geometry":{"type":"Polygon","coordinates":[[[121.12476,13.35794],[121.1252,13.35741],[121.12624,13.35681],[121.12652,13.35714],[121.12705,13.35664],[121.12761,13.35654],[121.12846,13.35593],[121.12911,13.35589],[121.12952,13.35535],[121.12982,13.35538],[121.13014,13.35585],[121.13057,13.35565],[121.13116,13.3557],[121.13181,13.3552],[121.13214,13.35537],[121.13282,13.35492],[121.13342,13.35431],[121.13345,13.35397],[121.13439,13.3518],[121.13459,13.35107],[121.13727,13.34868],[121.13802,13.34655],[121.1378,13.34384],[121.13626,13.34144],[121.1347,13.33829],[121.1331,13.32985],[121.13285,13.32989],[121.13205,13.32936],[121.13153,13.32943],[121.12709,13.33048],[121.12717,13.33087],[121.12686,13.33132],[121.12684,13.33188],[121.12744,13.33231],[121.12757,13.33291],[121.12792,13.33363],[121.12803,13.33423],[121.12788,13.33478],[121.12799,13.33516],[121.12752,13.33584],[121.12776,13.33742],[121.12758,13.33824],[121.12664,13.34106],[121.12612,13.34233],[121.12608,13.34276],[121.12573,13.34358],[121.12479,13.34485],[121.12443,13.34581],[121.12385,13.34607],[121.12348,13.34667],[121.12342,13.34724],[121.12316,13.34799],[121.12273,13.34855],[121.1221,13.34905],[121.12125,13.34935],[121.12051,13.35001],[121.12009,13.3501],[121.11991,13.35039],[121.12,13.35092],[121.11989,13.35179],[121.12005,13.35295],[121.11994,13.35352],[121.12007,13.35443],[121.11936,13.35534],[121.11952,13.35645],[121.11997,13.3572],[121.12076,13.35771],[121.12199,13.35804],[121.12401,13.35781],[121.12476,13.35794]]]}},{"type":"Feature","properties":{"name":"Santo Niño"},"geometry":{"type":"Polygon","coordinates":[[[121.18718,13.41036],[121.18755,13.40897],[121.1873,13.40779],[121.18707,13.40565],[121.1876,13.40478],[121.18852,13.40425],[121.18982,13.40376],[121.18979,13.40287],[121.18965,13.4027],[121.18735,13.40224],[121.18628,13.4025],[121.1851,13.40318],[121.18401,13.404],[121.18371,13.40364],[121.18289,13.40413],[121.18301,13.40482],[121.18289,13.40535],[121.18233,13.40535],[121.18225,13.40611],[121.18233,13.40743],[121.18198,13.4074],[121.18154,13.40765],[121.18208,13.40835],[121.18171,13.40936],[121.18108,13.41003],[121.18104,13.411],[121.18175,13.41192],[121.1835,13.41132],[121.18487,13.41029],[121.18485,13.4097],[121.18666,13.4097],[121.18718,13.41036]]]}},{"type":"Feature","properties":{"name":"Sapul"},"geometry":{"type":"Polygon","coordinates":[[[121.19593,13.37357],[121.19535,13.37306],[121.19424,13.37185],[121.1941,13.37085],[121.1937,13.37046],[121.1947,13.36777],[121.19662,13.36353],[121.20126,13.36118],[121.199,13.35643],[121.19044,13.35467],[121.17942,13.35278],[121.18168,13.35713],[121.17953,13.3583],[121.17611,13.36054],[121.17632,13.36106],[121.1762,13.36151],[121.17618,13.36228],[121.17602,13.36265],[121.17641,13.36296],[121.1763,13.3633],[121.17671,13.3644],[121.17636,13.36477],[121.17671,13.36558],[121.17642,13.3659],[121.17642,13.36677],[121.17673,13.36717],[121.17645,13.36757],[121.17713,13.36835],[121.17671,13.36854],[121.17664,13.36898],[121.17635,13.36914],[121.17638,13.36956],[121.17596,13.3707],[121.17598,13.37152],[121.1758,13.37216],[121.17542,13.37264],[121.1762,13.37268],[121.17651,13.37357],[121.17784,13.37528],[121.17794,13.37559],[121.17853,13.3755],[121.1788,13.37713],[121.17997,13.37654],[121.18101,13.3764],[121.18188,13.37617],[121.18277,13.37616],[121.18341,13.37638],[121.18512,13.37675],[121.1863,13.37694],[121.18828,13.37739],[121.18987,13.37717],[121.19112,13.37669],[121.19198,13.3765],[121.19234,13.37622],[121.19278,13.37557],[121.19593,13.37357]]]}},{"type":"Feature","properties":{"name":"Silonay"},"geometry":{"type":"Polygon","coordinates":[[[121.22813,13.403],[121.22813,13.40216],[121.22761,13.40117],[121.2277,13.40057],[121.22746,13.3996],[121.22719,13.39962],[121.22638,13.39929],[121.22612,13.39879],[121.22632,13.39834],[121.22572,13.39767],[121.22578,13.39669],[121.22513,13.39586],[121.22467,13.39578],[121.22416,13.39605],[121.22368,13.39671],[121.22342,13.39857],[121.22357,13.3993],[121.22176,13.40109],[121.22192,13.40149],[121.22441,13.40073],[121.22799,13.4033],[121.22813,13.403]]]}},{"type":"Feature","properties":{"name":"Suqui"},"geometry":{"type":"MultiPolygon","coordinates":[[[[121.21291,13.41531],[121.21253,13.41502],[121.2004,13.40872],[121.19861,13.41063],[121.19748,13.41234],[121.19407,13.41468],[121.19327,13.41524],[121.19362,13.41765],[121.19495,13.42008],[121.19504,13.42055],[121.19674,13.4236],[121.20536,13.42328],[121.20661,13.42159],[121.20714,13.42072],[121.2077,13.42],[121.20818,13.41916],[121.20866,13.41853],[121.20892,13.41781],[121.20934,13.41769],[121.21019,13.41703],[121.21138,13.41661],[121.21291,13.41531]]],[[[121.21664,13.42956],[121.21685,13.42868],[121.2168,13.42698],[121.21722,13.42623],[121.21634,13.42609],[121.2158,13.4262],[121.21552,13.42656],[121.21465,13.42702],[121.21529,13.42791],[121.21609,13.42933],[121.21664,13.42956]]]]}},{"type":"Feature","properties":{"name":"Tawagan"},"geometry":{"type":"Polygon","coordinates":[[[121.15395,13.38355],[121.15475,13.37461],[121.1542,13.37219],[121.1517,13.36474],[121.14835,13.35865],[121.14408,13.36262],[121.14435,13.36317],[121.14416,13.36378],[121.14431,13.36401],[121.14299,13.36586],[121.1429,13.36646],[121.14236,13.36842],[121.14201,13.36893],[121.14146,13.37027],[121.14138,13.37099],[121.1412,13.37119],[121.14116,13.37222],[121.14061,13.37334],[121.14048,13.37403],[121.13961,13.37565],[121.13927,13.37598],[121.139,13.37684],[121.13879,13.37706],[121.13807,13.37888],[121.1387,13.38113],[121.13895,13.38146],[121.14082,13.38242],[121.14267,13.38394],[121.14256,13.38487],[121.14269,13.38578],[121.14316,13.38625],[121.14381,13.38668],[121.15395,13.38355]]]}},{"type":"Feature","properties":{"name":"Tawiran"},"geometry":{"type":"Polygon","coordinates":[[[121.17566,13.39555],[121.1758,13.39491],[121.17562,13.39442],[121.17592,13.3942],[121.17585,13.39378],[121.17544,13.39339],[121.17575,13.3929],[121.1761,13.39279],[121.17605,13.39208],[121.17625,13.39168],[121.17569,13.39158],[121.17576,13.39105],[121.17468,13.39069],[121.17236,13.38954],[121.17187,13.38427],[121.17122,13.38455],[121.16988,13.38537],[121.16923,13.38551],[121.16738,13.38888],[121.16614,13.38936],[121.16586,13.38925],[121.16534,13.38948],[121.16501,13.38936],[121.16319,13.3899],[121.16134,13.39123],[121.16008,13.39157],[121.15899,13.39693],[121.16053,13.39743],[121.16241,13.39851],[121.16926,13.3971],[121.17028,13.39672],[121.1714,13.39641],[121.17514,13.39549],[121.17566,13.39555]]]}},{"type":"Feature","properties":{"name":"Tibag"},"geometry":{"type":"Polygon","coordinates":[[[121.17438,13.41455],[121.1745,13.41412],[121.17406,13.41369],[121.17423,13.413],[121.17526,13.41259],[121.17575,13.41264],[121.17589,13.41229],[121.17549,13.41165],[121.1749,13.41109],[121.17416,13.41105],[121.17346,13.40971],[121.17236,13.40987],[121.17184,13.40982],[121.17197,13.41017],[121.17191,13.41128],[121.17196,13.41225],[121.17218,13.41442],[121.17438,13.41455]]]}}]}